     2              NAVIGATION DATA                         RINEX VERSION / TYPE
CCRINEXN V1.6.0 UX  CDDIS               13-DEC-16 17:31     PGM / RUN BY / DATE 
IGS BROADCAST EPHEMERIS FILE                                COMMENT             
    0.9313D-08 -0.1490D-07 -0.5960D-07  0.1192D-06          ION ALPHA           
    0.9626D+05 -0.1475D+06 -0.1311D+06  0.9175D+06          ION BETA            
   -0.186264514923D-08-0.710542735760D-14   233472     1927 DELTA-UTC: A0,A1,T,W
    17                                                      LEAP SECONDS        
                                                            END OF HEADER       
23 16 12 12  6  0  0.0-0.199483241886D-03-0.113686837722D-11 0.000000000000D+00
    0.490000000000D+02 0.427187500000D+02 0.455697553061D-08 0.538280948648D+00
    0.235438346863D-05 0.111486575333D-01 0.129006803036D-04 0.515357836723D+04
    0.108000000000D+06-0.614672899246D-07 0.257470402152D+01 0.227242708206D-06
    0.945221063863D+00 0.124187500000D+03-0.252152364754D+01-0.804176354316D-08
   -0.483591572101D-09 0.100000000000D+01 0.192700000000D+04 0.000000000000D+00
    0.200000000000D+01 0.000000000000D+00-0.200234353542D-07 0.490000000000D+02
    0.100800000000D+06 0.400000000000D+01 0.000000000000D+00 0.000000000000D+00
24 16 12 12  6  0  0.0-0.274032354355D-04-0.568434188608D-12 0.000000000000D+00
    0.660000000000D+02 0.136812500000D+03 0.492199081492D-08-0.838328774844D-01
    0.716745853424D-05 0.514672754798D-02 0.605545938015D-05 0.515371431351D+04
    0.108000000000D+06 0.372529029846D-07-0.268442874670D+01 0.465661287308D-07
    0.947546271208D+00 0.255968750000D+03 0.410727384833D+00-0.846678105404D-08
    0.372872677179D-09 0.100000000000D+01 0.192700000000D+04 0.000000000000D+00
    0.200000000000D+01 0.000000000000D+00 0.232830643654D-08 0.660000000000D+02
    0.100800000000D+06 0.000000000000D+00 0.000000000000D+00 0.000000000000D+00
25 16 12 12  6  0  0.0-0.298200640827D-03-0.682121026330D-11 0.000000000000D+00
    0.440000000000D+02-0.671875000000D+02 0.453340312015D-08-0.213351955711D+01
   -0.354088842869D-05 0.578793755267D-02 0.102445483208D-05 0.515365886498D+04
    0.108000000000D+06 0.113621354103D-06-0.160626502286D+01-0.763684511185D-07
    0.977695217822D+00 0.368906250000D+03 0.753087977686D+00-0.834641909043D-08
   -0.971469037013D-10 0.100000000000D+01 0.192700000000D+04 0.000000000000D+00
    0.200000000000D+01 0.000000000000D+00 0.558793544769D-08 0.440000000000D+02
    0.100800000000D+06 0.400000000000D+01 0.000000000000D+00 0.000000000000D+00
26 16 12 12  6  0  0.0-0.510057900101D-03-0.329691829393D-11 0.000000000000D+00
    0.180000000000D+02-0.638125000000D+02 0.495234914236D-08-0.247260917631D+01
   -0.326707959175D-05 0.138404720928D-02 0.125914812088D-05 0.515362203407D+04
    0.108000000000D+06-0.670552253723D-07-0.161875499464D+01-0.335276126862D-07
    0.959568861140D+00 0.356750000000D+03-0.201121009086D+00-0.856249951962D-08
   -0.181436128972D-09 0.100000000000D+01 0.192700000000D+04 0.000000000000D+00
    0.200000000000D+01 0.000000000000D+00 0.745058059692D-08 0.180000000000D+02
    0.100800000000D+06 0.400000000000D+01 0.000000000000D+00 0.000000000000D+00
27 16 12 12  6  0  0.0 0.178081449121D-03 0.534328137292D-11 0.000000000000D+00
    0.740000000000D+02-0.104812500000D+03 0.406338354195D-08 0.183827250286D+01
   -0.537373125553D-05 0.403304607607D-02 0.115223228931D-04 0.515366326904D+04
    0.108000000000D+06-0.447034835815D-07-0.565705548272D+00 0.102445483208D-06
    0.973620841753D+00 0.163906250000D+03 0.297294712387D+00-0.778425281680D-08
   -0.617882880159D-10 0.100000000000D+01 0.192700000000D+04 0.000000000000D+00
    0.200000000000D+01 0.000000000000D+00 0.139698386192D-08 0.740000000000D+02
    0.102810000000D+06 0.400000000000D+01 0.000000000000D+00 0.000000000000D+00
28 16 12 12  6  0  0.0 0.573751050979D-03 0.272848410532D-11 0.000000000000D+00
    0.580000000000D+02-0.990937500000D+02 0.423374778116D-08 0.263248980792D+01
   -0.509992241859D-05 0.201526727760D-01 0.104121863842D-05 0.515363689041D+04
    0.108000000000D+06 0.236555933952D-06-0.152937734310D+01-0.106170773506D-06
    0.988881360935D+00 0.372437500000D+03-0.159313540186D+01-0.798926135623D-08
   -0.402873924173D-09 0.100000000000D+01 0.192700000000D+04 0.000000000000D+00
    0.200000000000D+01 0.000000000000D+00-0.111758708954D-07 0.580000000000D+02
    0.100800000000D+06 0.400000000000D+01 0.000000000000D+00 0.000000000000D+00
30 16 12 12  6  0  0.0 0.158959068358D-03 0.682121026330D-12 0.000000000000D+00
    0.940000000000D+02 0.151843750000D+03 0.487484591404D-08-0.101604002546D+01
    0.774115324020D-05 0.237225752789D-02 0.447221100330D-05 0.515374282074D+04
    0.108000000000D+06 0.651925802231D-07-0.259254905321D+01-0.689178705216D-07
    0.950197178246D+00 0.285562500000D+03 0.313547749802D+01-0.851785480284D-08
    0.460019161645D-09 0.100000000000D+01 0.192700000000D+04 0.000000000000D+00
    0.280000000000D+01 0.000000000000D+00 0.372529029846D-08 0.940000000000D+02
    0.100800000000D+06 0.400000000000D+01 0.000000000000D+00 0.000000000000D+00
30 16 12 12  7 59 44.0 0.158963259310D-03 0.682121026330D-12 0.000000000000D+00
    0.180000000000D+02 0.146843750000D+03 0.481270046829D-08 0.319304677693D-01
    0.768154859543D-05 0.237298535649D-02 0.437907874584D-05 0.515374435615D+04
    0.115184000000D+06 0.651925802231D-07-0.259261023390D+01-0.558793544769D-07
    0.950200374722D+00 0.288812500000D+03 0.313531382382D+01-0.853856995143D-08
    0.451804533758D-09 0.100000000000D+01 0.192700000000D+04 0.000000000000D+00
    0.200000000000D+01 0.000000000000D+00 0.372529029846D-08 0.180000000000D+02
    0.108000000000D+06 0.400000000000D+01 0.000000000000D+00 0.000000000000D+00
 1 16 12 12  8  0  0.0 0.433796085417D-04 0.125055521494D-11 0.000000000000D+00
    0.660000000000D+02 0.314375000000D+02 0.466769442821D-08 0.678129679143D+00
    0.175461173058D-05 0.605578825343D-02 0.856444239616D-05 0.515369356918D+04
    0.115200000000D+06-0.558793544769D-08 0.491342237531D+00 0.115483999252D-06
    0.966095832535D+00 0.215187500000D+03 0.559985610265D+00-0.810248035797D-08
    0.546808491054D-09 0.100000000000D+01 0.192700000000D+04 0.000000000000D+00
    0.200000000000D+01 0.000000000000D+00 0.512227416039D-08 0.660000000000D+02
    0.108000000000D+06 0.400000000000D+01 0.000000000000D+00 0.000000000000D+00
 2 16 12 12  8  0  0.0 0.511812977493D-03-0.602540239925D-11 0.000000000000D+00
    0.580000000000D+02 0.221875000000D+02 0.510092679207D-08 0.113800798957D+01
    0.122375786305D-05 0.162541677710D-01 0.999681651592D-05 0.515368967438D+04
    0.115200000000D+06-0.264495611191D-06 0.441534689932D+00 0.104308128357D-06
    0.944987203241D+00 0.184375000000D+03-0.205652723336D+01-0.847963921302D-08
    0.570380909171D-09 0.100000000000D+01 0.192700000000D+04 0.000000000000D+00
    0.200000000000D+01 0.000000000000D+00-0.200234353542D-07 0.580000000000D+02
    0.108000000000D+06 0.000000000000D+00 0.000000000000D+00 0.000000000000D+00
 3 16 12 12  8  0  0.0-0.102342572063D-03-0.147792889038D-11 0.000000000000D+00
    0.390000000000D+02-0.305312500000D+02 0.504663878419D-08-0.705157885022D+00
   -0.171363353729D-05 0.391722889617D-03 0.543519854546D-05 0.515355296898D+04
    0.115200000000D+06-0.242143869400D-07 0.153345023870D+01 0.298023223877D-07
    0.958989102317D+00 0.272718750000D+03 0.875833184322D+00-0.828320217148D-08
   -0.424660545959D-09 0.100000000000D+01 0.192700000000D+04 0.000000000000D+00
    0.200000000000D+01 0.000000000000D+00 0.186264514923D-08 0.390000000000D+02
    0.114150000000D+06 0.400000000000D+01 0.000000000000D+00 0.000000000000D+00
 4 16 12 12  8  0  0.0 0.191000290215D-04-0.117097442853D-10 0.000000000000D+00
    0.113000000000D+03 0.341875000000D+02 0.518093009225D-08 0.422976039496D+00
    0.187382102013D-05 0.131849352037D-01 0.891461968422D-05 0.515369501305D+04
    0.115200000000D+06-0.186264514923D-06 0.456104264128D+00 0.931322574615D-07
    0.944156513006D+00 0.200218750000D+03 0.120488253928D+01-0.851035449042D-08
    0.526450500205D-09 0.100000000000D+01 0.192700000000D+04 0.000000000000D+00
    0.280000000000D+01 0.630000000000D+02-0.651925802231D-08 0.113000000000D+03
    0.108000000000D+06 0.400000000000D+01 0.000000000000D+00 0.000000000000D+00
 5 16 12 12  8  0  0.0-0.726175494492D-04 0.227373675443D-11 0.000000000000D+00
    0.580000000000D+02-0.277187500000D+02 0.538629578941D-08-0.267091744890D+01
   -0.145286321640D-05 0.489699898753D-02 0.519491732121D-05 0.515363558197D+04
    0.115200000000D+06 0.279396772385D-07 0.151886707985D+01-0.372529029846D-07
    0.945996387038D+00 0.272531250000D+03 0.563264673846D+00-0.841142179805D-08
   -0.354657630057D-09 0.100000000000D+01 0.192700000000D+04 0.000000000000D+00
    0.200000000000D+01 0.000000000000D+00-0.107102096081D-07 0.580000000000D+02
    0.108000000000D+06 0.400000000000D+01 0.000000000000D+00 0.000000000000D+00
 6 16 12 12  8  0  0.0 0.284891109914D-03 0.500222085975D-11 0.000000000000D+00
    0.800000000000D+02 0.274687500000D+02 0.456697594716D-08 0.107485716764D+01
    0.140443444252D-05 0.390012748539D-03 0.930577516556D-05 0.515357427216D+04
    0.115200000000D+06 0.931322574616D-08 0.482954122738D+00 0.149011611938D-07
    0.965903179390D+00 0.203656250000D+03-0.146979399027D+01-0.797747515100D-08
    0.651812864908D-09 0.100000000000D+01 0.192700000000D+04 0.000000000000D+00
    0.200000000000D+01 0.000000000000D+00 0.419095158577D-08 0.800000000000D+02
    0.114510000000D+06 0.400000000000D+01 0.000000000000D+00 0.000000000000D+00
